{
  "norad_id": 68843,
  "name": "STARLINK-37219",
  "history": [
    {
      "epoch": "2026-05-02T10:00:03.000096Z",
      "apogee_km": 269.41257652987133,
      "perigee_km": 267.7894431078739,
      "latitude_deg": -73.13180539256406,
      "longitude_deg": -79.0269187592442,
      "height_km": 296.31831944110814,
      "semi_major_axis_km": 6646.738009818872,
      "eccentricity": 0.0001221,
      "inclination_deg": 97.2794,
      "raan_deg": 136.0853,
      "arg_perigee_deg": 79.6538,
      "mean_anomaly_deg": 174.9382,
      "mean_motion_rev_day": 16.02101108
    },
    {
      "epoch": "2026-05-03T20:00:01.999008Z",
      "apogee_km": 283.474369479648,
      "perigee_km": 281.5547696972926,
      "latitude_deg": 52.49982253030458,
      "longitude_deg": 165.41331742905737,
      "height_km": 290.6985343929227,
      "semi_major_axis_km": 6660.65156958847,
      "eccentricity": 0.0001441,
      "inclination_deg": 97.2784,
      "raan_deg": 137.6265,
      "arg_perigee_deg": 64.5386,
      "mean_anomaly_deg": 62.4469,
      "mean_motion_rev_day": 15.97083742
    }
  ]
}